ONEWEB-0283             
1 49001U 21060AL  25076.95157712  .00000097  00000+0  22022-3 0  9996
2 49001  87.9086 319.7379 0001872  78.8595 281.2746 13.16586306179582
ONEWEB-0284             
1 49002U 21060AM  25076.94525106 -.00000569  00000+0 -15208-2 0  9995
2 49002  87.9078 319.7064 0001450  70.6735 289.4552 13.16594605179567
ONEWEB-0285             
1 49075U 21075A   25076.70477588 -.00016626  00000+0 -46424-1 0  9999
2 49075  87.8801  81.5124 0002314  95.2703 264.8689 13.12309575175334
ONEWEB-0286             
1 49076U 21075B   25077.05729257  .00001267  00000+0  34841-2 0  9996
2 49076  87.8807  81.4361 0001647  94.5352 265.5965 13.12454599175717
ONEWEB-0287             
1 49077U 21075C   25077.47369665  .00000049  00000+0  93852-4 0  9992
2 49077  87.9003  96.6382 0001569 103.2720 256.8586 13.17650597174585
ONEWEB-0288             
1 49078U 21075D   25077.50091878 -.00000386  00000+0 -11089-2 0  9991
2 49078  87.8799  81.3494 0001679  87.8121 272.3199 13.12443844176402
ONEWEB-0289             
1 49079U 21075E   25077.50239435  .00000024  00000+0  28651-4 0  9997
2 49079  87.9008  96.6634 0001640  76.3093 283.8221 13.17650772175161
ONEWEB-0290             
1 49080U 21075F   25077.10583780  .00000037  00000+0  61156-4 0  9991
2 49080  87.9003  96.6997 0001966  70.3929 289.7414 13.17649926174531
